CCSDS_OMM_VERS = 2.0
CREATION_DATE  = 
ORIGINATOR     = 

OBJECT_NAME    = CZ-2C R/B
OBJECT_ID      = 2022-132E
CENTER_NAME    = EARTH
REF_FRAME      = TEME
TIME_SYSTEM    = UTC
MEAN_ELEMENT_THEORY = SGP/SGP4

EPOCH          = 2026-02-09T23:47:48.470208
MEAN_MOTION    = 15.59435353
ECCENTRICITY   = .0018496
INCLINATION    = 97.2962
RA_OF_ASC_NODE = 43.5238
ARG_OF_PERICENTER = 184.5586
MEAN_ANOMALY   = 175.5505

EPHEMERIS_TYPE = 0
CLASSIFICATION_TYPE = U
NORAD_CAT_ID   = 54039
ELEMENT_SET_NO = 999
REV_AT_EPOCH   = 18605
BSTAR          = .44287E-3
MEAN_MOTION_DOT = .35281E-3
MEAN_MOTION_DDOT = 0

CCSDS_OMM_VERS = 2.0
CREATION_DATE  = 
ORIGINATOR     = 

OBJECT_NAME    = GSLV R/B
OBJECT_ID      = 2022-138AN
CENTER_NAME    = EARTH
REF_FRAME      = TEME
TIME_SYSTEM    = UTC
MEAN_ELEMENT_THEORY = SGP/SGP4

EPOCH          = 2026-02-10T07:23:31.130880
MEAN_MOTION    = 14.96563267
ECCENTRICITY   = .00194149
INCLINATION    = 87.3860
RA_OF_ASC_NODE = 175.5242
ARG_OF_PERICENTER = 249.4698
MEAN_ANOMALY   = 110.4450

EPHEMERIS_TYPE = 0
CLASSIFICATION_TYPE = U
NORAD_CAT_ID   = 54149
ELEMENT_SET_NO = 999
REV_AT_EPOCH   = 17983
BSTAR          = .36677805E-3
MEAN_MOTION_DOT = .4214E-4
MEAN_MOTION_DDOT = 0

CCSDS_OMM_VERS = 2.0
CREATION_DATE  = 
ORIGINATOR     = 

OBJECT_NAME    = XRISM
OBJECT_ID      = 2023-137A
CENTER_NAME    = EARTH
REF_FRAME      = TEME
TIME_SYSTEM    = UTC
MEAN_ELEMENT_THEORY = SGP/SGP4

EPOCH          = 2026-02-10T05:34:02.954496
MEAN_MOTION    = 15.11157846
ECCENTRICITY   = .00080245
INCLINATION    = 31.0019
RA_OF_ASC_NODE = 101.2074
ARG_OF_PERICENTER = 125.6508
MEAN_ANOMALY   = 234.4878

EPHEMERIS_TYPE = 0
CLASSIFICATION_TYPE = U
NORAD_CAT_ID   = 57800
ELEMENT_SET_NO = 999
REV_AT_EPOCH   = 13363
BSTAR          = .34924096E-3
MEAN_MOTION_DOT = .6105E-4
MEAN_MOTION_DDOT = 0

CCSDS_OMM_VERS = 2.0
CREATION_DATE  = 
ORIGINATOR     = 

OBJECT_NAME    = ACS3
OBJECT_ID      = 2024-077B
CENTER_NAME    = EARTH
REF_FRAME      = TEME
TIME_SYSTEM    = UTC
MEAN_ELEMENT_THEORY = SGP/SGP4

EPOCH          = 2026-02-10T01:15:03.517056
MEAN_MOTION    = 13.88466000
ECCENTRICITY   = .00456662
INCLINATION    = 97.2209
RA_OF_ASC_NODE = 348.3780
ARG_OF_PERICENTER = 162.1621
MEAN_ANOMALY   = 198.1157

EPHEMERIS_TYPE = 0
CLASSIFICATION_TYPE = U
NORAD_CAT_ID   = 59588
ELEMENT_SET_NO = 999
REV_AT_EPOCH   = 9036
BSTAR          = .18065584E-1
MEAN_MOTION_DOT = .21895E-3
MEAN_MOTION_DDOT = 0

CCSDS_OMM_VERS = 2.0
CREATION_DATE  = 
ORIGINATOR     = 

OBJECT_NAME    = SZ-21 MODULE
OBJECT_ID      = 2025-246C
CENTER_NAME    = EARTH
REF_FRAME      = TEME
TIME_SYSTEM    = UTC
MEAN_ELEMENT_THEORY = SGP/SGP4

EPOCH          = 2026-02-10T05:31:56.305920
MEAN_MOTION    = 15.66460938
ECCENTRICITY   = .00026926
INCLINATION    = 41.4766
RA_OF_ASC_NODE = 12.1179
ARG_OF_PERICENTER = 288.8350
MEAN_ANOMALY   = 71.2199

EPHEMERIS_TYPE = 0
CLASSIFICATION_TYPE = U
NORAD_CAT_ID   = 66515
ELEMENT_SET_NO = 999
REV_AT_EPOCH   = 1376
BSTAR          = .32446988E-3
MEAN_MOTION_DOT = .34587E-3
MEAN_MOTION_DDOT = 0

