CZ-2C R/B               
1 54039U 22132E   26040.99153322  .00035281  00000+0  44287-3 0  9993
2 54039  97.2962  43.5238 0018496 184.5586 175.5505 15.59435353186059
GSLV R/B                
1 54149U 22138AN  26041.30799920  .00004214  00000+0  36678-3 0  9994
2 54149  87.3860 175.5242 0019414 249.4698 110.4450 14.96563267179836
XRISM                   
1 57800U 23137A   26041.23197864  .00006105  00000+0  34924-3 0  9995
2 57800  31.0019 101.2074 0008024 125.6508 234.4878 15.11157846133633
ACS3                    
1 59588U 24077B   26041.05212404  .00021895  00000+0  18066-1 0  9992
2 59588  97.2209 348.3780 0045666 162.1621 198.1157 13.88466000 90361
SZ-21 MODULE            
1 66515U 25246C   26041.23051280  .00034587  00000+0  32447-3 0  9995
2 66515  41.4766  12.1179 0002692 288.8350  71.2199 15.66460938 13761
